GLOBALSTAR M035         
1 25851U 99037A   25085.49161060 -.00000051  00000+0  45799-3 0  9999
2 25851  51.9930 239.3847 0013774 203.9115 196.8802 11.04537146 87123
GLOBALSTAR M032         
1 25852U 99037B   25085.26115853 -.00000066  00000+0  38526-4 0  9991
2 25852  51.9948  70.8124 0011729  27.6449 332.4972 11.19063225125507
GLOBALSTAR M051         
1 25853U 99037C   25085.44276086 -.00000067  00000+0  12996-3 0  9991
2 25853  51.9777 240.5035 0001531  90.5632 269.5354 11.42205340122938
GLOBALSTAR M030         
1 25854U 99037D   25085.27037371 -.00000051  00000+0  50127-3 0  9996
2 25854  51.9888  52.2937 0003683 262.3733  97.6666 11.55100691140463
GLOBALSTAR M048         
1 25872U 99041A   25085.52141748 -.00000060  00000+0  27994-3 0  9999
2 25872  51.9354 172.1520 0013074  44.5263  51.9647 11.33855578115601
GLOBALSTAR M026         
1 25873U 99041B   25085.54274834 -.00000036  00000+0  10496-2 0  9996
2 25873  52.0061 358.1011 0001918 111.4760  60.3841 11.06832991139330
GLOBALSTAR M043         
1 25874U 99041C   25085.59211086 -.00000037  00000+0  94012-3 0  9990
2 25874  51.9389 276.3395 0013767 168.2938 233.0240 11.25693046113577
GLOBALSTAR M028         
1 25875U 99041D   25085.43127790 -.00000082  00000+0  11432-3 0  9997
2 25875  51.9618  79.8254 0063087 251.7703 107.6284 12.50580036179828
